{"type":"FeatureCollection","name":"Denormandie_Bretagne","features":[{"type":"Feature","id":"22050","geometry":null,"properties":{"code_insee":"22050","commune":"Dinan","code_departement":"22","departement":"Côtes-d’Armor","denormandie":true}},{"type":"Feature","id":"22113","geometry":null,"properties":{"code_insee":"22113","commune":"Lannion","code_departement":"22","departement":"Côtes-d’Armor","denormandie":true}},{"type":"Feature","id":"22278","geometry":null,"properties":{"code_insee":"22278","commune":"Saint-Brieuc","code_departement":"22","departement":"Côtes-d’Armor","denormandie":true}},{"type":"Feature","id":"22362","geometry":null,"properties":{"code_insee":"22362","commune":"Tréguier","code_departement":"22","departement":"Côtes-d’Armor","denormandie":true}},{"type":"Feature","id":"29019","geometry":null,"properties":{"code_insee":"29019","commune":"Brest","code_departement":"29","departement":"Finistère","denormandie":true}},{"type":"Feature","id":"29151","geometry":null,"properties":{"code_insee":"29151","commune":"Morlaix","code_departement":"29","departement":"Finistère","denormandie":true}},{"type":"Feature","id":"29232","geometry":null,"properties":{"code_insee":"29232","commune":"Quimper","code_departement":"29","departement":"Finistère","denormandie":true}},{"type":"Feature","id":"35115","geometry":null,"properties":{"code_insee":"35115","commune":"Fougères","code_departement":"35","departement":"Ille-et-Vilaine","denormandie":true}},{"type":"Feature","id":"35236","geometry":null,"properties":{"code_insee":"35236","commune":"Redon","code_departement":"35","departement":"Ille-et-Vilaine","denormandie":true}},{"type":"Feature","id":"35238","geometry":null,"properties":{"code_insee":"35238","commune":"Rennes","code_departement":"35","departement":"Ille-et-Vilaine","denormandie":true}},{"type":"Feature","id":"35288","geometry":null,"properties":{"code_insee":"35288","commune":"Saint-Malo","code_departement":"35","departement":"Ille-et-Vilaine","denormandie":true}},{"type":"Feature","id":"35360","geometry":null,"properties":{"code_insee":"35360","commune":"Vitré","code_departement":"35","departement":"Ille-et-Vilaine","denormandie":true}},{"type":"Feature","id":"56121","geometry":null,"properties":{"code_insee":"56121","commune":"Lorient","code_departement":"56","departement":"Morbihan","denormandie":true}},{"type":"Feature","id":"56178","geometry":null,"properties":{"code_insee":"56178","commune":"Pontivy","code_departement":"56","departement":"Morbihan","denormandie":true}},{"type":"Feature","id":"56260","geometry":null,"properties":{"code_insee":"56260","commune":"Vannes","code_departement":"56","departement":"Morbihan","denormandie":true}}]}